[
    {
        "object_name": "IRIDIUM 33 DEB",
        "tle_line1": "1 34521U 97051HN  26086.69368846  .00005368  00000+0  10002-2 0  9995",
        "tle_line2": "2 34521  86.3822 344.3004 0001343 312.7488  47.3611 14.64907925900084",
        "catalog_number": "34521"
    },
    {
        "object_name": "IRIDIUM 33 DEB",
        "tle_line1": "1 34525U 97051HS  26086.74304794  .00001089  00000+0  31812-3 0  9996",
        "tle_line2": "2 34525  86.3781   2.0224 0006592  96.5183 322.7729 14.43219319896022",
        "catalog_number": "34525"
    },
    {
        "object_name": "IRIDIUM 33 DEB",
        "tle_line1": "1 34529U 97051HW  26086.16118581  .00000613  00000+0  18563-3 0  9993",
        "tle_line2": "2 34529  86.3688 350.9110 0003727 194.6467 165.4625 14.40761228896455",
        "catalog_number": "34529"
    },
    {
        "object_name": "IRIDIUM 33 DEB",
        "tle_line1": "1 34538U 97051JF  26086.38003427  .00001967  00000+0  57358-3 0  9997",
        "tle_line2": "2 34538  86.2768 319.7194 0034159 342.6721  72.1566 14.43365525892658",
        "catalog_number": "34538"
    },
    {
        "object_name": "IRIDIUM 33 DEB",
        "tle_line1": "1 34540U 97051JH  26086.92360206  .00010874  00000+0  15072-2 0  9994",
        "tle_line2": "2 34540  86.3053 259.4037 0016865 159.2075 353.5354 14.77788072905731",
        "catalog_number": "34540"
    },
    {
        "object_name": "IRIDIUM 33 DEB",
        "tle_line1": "1 34648U 97051JZ  26086.37483444  .00005758  00000+0  26372-2 0  9992",
        "tle_line2": "2 34648  86.3918 239.6235 0173288 327.4433  31.6156 14.13628579864384",
        "catalog_number": "34648"
    },
    {
        "object_name": "IRIDIUM 33 DEB",
        "tle_line1": "1 34651U 97051KC  26086.03858850  .00005759  00000+0  21283-2 0  9993",
        "tle_line2": "2 34651  86.2772  96.1096 0132521 226.9880 132.0149 14.27506024873833",
        "catalog_number": "34651"
    },
    {
        "object_name": "IRIDIUM 33 DEB",
        "tle_line1": "1 34652U 97051KD  26086.03357192  .00003479  00000+0  67019-3 0  9992",
        "tle_line2": "2 34652  86.3272 293.5344 0025948 302.6062 209.5790 14.63095141900080",
        "catalog_number": "34652"
    },
    {
        "object_name": "IRIDIUM 33 DEB",
        "tle_line1": "1 34690U 97051KM  26086.69620573  .00001719  00000+0  38977-3 0  9998",
        "tle_line2": "2 34690  86.3816 351.3711 0011504  31.1050 358.0705 14.55533329896212",
        "catalog_number": "34690"
    },
    {
        "object_name": "IRIDIUM 33 DEB",
        "tle_line1": "1 34696U 97051KT  26086.70626375  .00025221  00000+0  37713-2 0  9992",
        "tle_line2": "2 34696  86.1815 338.3576 0057910 163.8036 250.7470 14.73454043882146",
        "catalog_number": "34696"
    },
    {
        "object_name": "IRIDIUM 33 DEB",
        "tle_line1": "1 34765U 97051LJ  26086.18133098  .00001131  00000+0  34714-3 0  9999",
        "tle_line2": "2 34765  86.3437 347.9525 0014316 230.9111 257.3362 14.40798518891176",
        "catalog_number": "34765"
    },
    {
        "object_name": "IRIDIUM 33 DEB",
        "tle_line1": "1 34833U 97051MH  26086.79064786  .00002775  00000+0  66343-3 0  9997",
        "tle_line2": "2 34833  86.3982   5.6967 0021727 101.4700 312.7464 14.53162987892400",
        "catalog_number": "34833"
    },
    {
        "object_name": "IRIDIUM 33 DEB",
        "tle_line1": "1 34870U 97051MQ  26084.75004294  .00008561  00000+0  11602-2 0  9996",
        "tle_line2": "2 34870  86.3055 266.8023 0016219 187.6051 185.2800 14.78738022904329",
        "catalog_number": "34870"
    },
    {
        "object_name": "IRIDIUM 33 DEB",
        "tle_line1": "1 34896U 97051MY  26083.30551191  .00004147  00000+0  72655-3 0  9999",
        "tle_line2": "2 34896  86.3237 281.0912 0023984 227.2104 256.4793 14.67408035891088",
        "catalog_number": "34896"
    },
    {
        "object_name": "IRIDIUM 33 DEB",
        "tle_line1": "1 34926U 97051NF  26086.89362582  .00016710  00000+0  33539-2 0  9990",
        "tle_line2": "2 34926  86.1337 319.3056 0073528 301.4303  71.7160 14.59873871879885",
        "catalog_number": "34926"
    },
    {
        "object_name": "IRIDIUM 33 DEB",
        "tle_line1": "1 34985U 97051NR  26086.25025213  .00001922  00000+0  57255-3 0  9993",
        "tle_line2": "2 34985  86.3746  12.2757 0018983 237.8234 274.4082 14.42550687886817",
        "catalog_number": "34985"
    },
    {
        "object_name": "IRIDIUM 33 DEB",
        "tle_line1": "1 35051U 97051NX  26086.93358994  .00001860  00000+0  49349-3 0  9994",
        "tle_line2": "2 35051  86.3244 323.0149 0010275  94.6626 265.5751 14.48181851885185",
        "catalog_number": "35051"
    },
    {
        "object_name": "IRIDIUM 33 DEB",
        "tle_line1": "1 35052U 97051NY  26086.40426279  .00000508  00000+0  15920-3 0  9995",
        "tle_line2": "2 35052  86.3340 335.6274 0013619  97.5976 262.6769 14.38648021887800",
        "catalog_number": "35052"
    },
    {
        "object_name": "IRIDIUM 33 DEB",
        "tle_line1": "1 35080U 97051PF  26086.17768748  .00088520  00000+0  56280-2 0  9993",
        "tle_line2": "2 35080  86.2123   1.7080 0036050 146.6627 213.6891 15.07884198712496",
        "catalog_number": "35080"
    },
    {
        "object_name": "IRIDIUM 33 DEB",
        "tle_line1": "1 35297U 97051PM  26086.54920999  .00001884  00000+0  52628-3 0  9993",
        "tle_line2": "2 35297  86.3906  18.0013 0016298 148.0584 212.1610 14.45692430719401",
        "catalog_number": "35297"
    },
    {
        "object_name": "IRIDIUM 33 DEB",
        "tle_line1": "1 35299U 97051PP  26086.47802459  .00003624  00000+0  10819-2 0  9996",
        "tle_line2": "2 35299  86.2913 347.5684 0056960 114.5526  64.7598 14.41820076878393",
        "catalog_number": "35299"
    },
    {
        "object_name": "IRIDIUM 33 DEB",
        "tle_line1": "1 35480U 97051QA  26086.41450154  .00001927  00000+0  48798-3 0  9995",
        "tle_line2": "2 35480  86.3600 339.5317 0015474 110.1635 250.1236 14.50368436885486",
        "catalog_number": "35480"
    },
    {
        "object_name": "IRIDIUM 33 DEB",
        "tle_line1": "1 35484U 97051QE  26076.88565226  .00025460  00000+0  16373-2 0  9997",
        "tle_line2": "2 35484  86.3507 307.8846 0014840 135.1901 225.0537 15.08193596634451",
        "catalog_number": "35484"
    },
    {
        "object_name": "IRIDIUM 33 DEB",
        "tle_line1": "1 35488U 97051QJ  26086.43298816  .00008159  00000+0  93239-3 0  9994",
        "tle_line2": "2 35488  86.3206 252.4869 0025923  32.1451 328.1347 14.85674860898190",
        "catalog_number": "35488"
    },
    {
        "object_name": "IRIDIUM 33 DEB",
        "tle_line1": "1 35616U 97051QN  26085.32077319  .00010852  00000+0  12633-2 0  9998",
        "tle_line2": "2 35616  86.3510 298.3596 0009005 162.7279 197.4253 14.85158750891100",
        "catalog_number": "35616"
    },
    {
        "object_name": "IRIDIUM 33 DEB",
        "tle_line1": "1 35618U 97051QQ  26086.88534543  .00001476  00000+0  35220-3 0  9999",
        "tle_line2": "2 35618  86.3372 307.5216 0029528  28.3396 331.9409 14.52793612669207",
        "catalog_number": "35618"
    },
    {
        "object_name": "IRIDIUM 33 DEB",
        "tle_line1": "1 35620U 97051QS  26084.49199947  .00007713  00000+0  21670-2 0  9995",
        "tle_line2": "2 35620  86.3906 174.0421 0130868 277.6429  80.9924 14.40889107614445",
        "catalog_number": "35620"
    },
    {
        "object_name": "IRIDIUM 33 DEB",
        "tle_line1": "1 35622U 97051QU  26086.61299602  .00043748  00000+0  22796-2 0  9990",
        "tle_line2": "2 35622  86.1931 211.3812 0008312 229.2394 146.6954 15.15774507889430",
        "catalog_number": "35622"
    },
    {
        "object_name": "IRIDIUM 33 DEB",
        "tle_line1": "1 35628U 97051RA  26086.37343813  .00005725  00000+0  96163-3 0  9996",
        "tle_line2": "2 35628  86.3569 322.3551 0011098 342.8919  17.1920 14.69480901879825",
        "catalog_number": "35628"
    },
    {
        "object_name": "IRIDIUM 33 DEB",
        "tle_line1": "1 35631U 97051RD  26086.67626887  .00000997  00000+0  26438-3 0  9992",
        "tle_line2": "2 35631  86.3697 335.8028 0018258 125.8740 263.4283 14.47674604887159",
        "catalog_number": "35631"
    },
    {
        "object_name": "IRIDIUM 33 DEB",
        "tle_line1": "1 35680U 97051RJ  26077.49376704  .00004583  00000+0  18187-2 0  9992",
        "tle_line2": "2 35680  86.1047 339.0868 0152800 335.8664 202.8220 14.22452930620611",
        "catalog_number": "35680"
    },
    {
        "object_name": "IRIDIUM 33 DEB",
        "tle_line1": "1 35744U 97051RX  26086.49904448  .00006049  00000+0  94363-3 0  9995",
        "tle_line2": "2 35744  86.3242 278.0312 0020129 191.8204 168.2543 14.72617646888728",
        "catalog_number": "35744"
    },
    {
        "object_name": "IRIDIUM 33 DEB",
        "tle_line1": "1 35797U 97051SF  26086.79949953  .00012644  00000+0  14347-2 0  9997",
        "tle_line2": "2 35797  86.3305 281.5603 0012223 143.5849 216.6209 14.86186887888992",
        "catalog_number": "35797"
    },
    {
        "object_name": "IRIDIUM 33 DEB",
        "tle_line1": "1 35806U 97051SQ  26084.94737748  .00003771  00000+0  80413-3 0  9999",
        "tle_line2": "2 35806  86.3476 335.1589 0015483  78.3694 281.9252 14.58635856878283",
        "catalog_number": "35806"
    },
    {
        "object_name": "IRIDIUM 33 DEB",
        "tle_line1": "1 35809U 97051ST  26084.29511256  .00008178  00000+0  11229-2 0  9998",
        "tle_line2": "2 35809  86.3231 288.5466 0009984 248.6716 111.3439 14.78236485883215",
        "catalog_number": "35809"
    },
    {
        "object_name": "IRIDIUM 33 DEB",
        "tle_line1": "1 35846U 97051SW  26085.75618764  .00001640  00000+0  47723-3 0  9999",
        "tle_line2": "2 35846  86.3784  14.4307 0016906 183.9615 176.1456 14.43626911728293",
        "catalog_number": "35846"
    }
]